OBJECT_NAME,OBJECT_ID,EPOCH,MEAN_MOTION,ECCENTRICITY,INCLINATION,RA_OF_ASC_NODE,ARG_OF_PERICENTER,MEAN_ANOMALY,EPHEMERIS_TYPE,CLASSIFICATION_TYPE,NORAD_CAT_ID,ELEMENT_SET_NO,REV_AT_EPOCH,BSTAR,MEAN_MOTION_DOT,MEAN_MOTION_DDOT
ONEWEB-0340,2021-083W,2026-07-14T21:42:13.116672,13.18687332,.0001871,87.9198,329.9445,94.3238,265.8108,0,U,49206,999,23362,-.16817E-3,-.53E-6,0
ONEWEB-0341,2021-083X,2026-07-14T21:51:55.399104,13.18687383,.0002341,87.9191,329.9446,91.2413,268.8987,0,U,49207,999,23364,-.26398E-3,-.91E-6,0
ONEWEB-0342,2021-083Y,2026-07-15T03:41:11.965344,13.20772691,.0002139,87.9189,268.8643,100.9935,259.1439,0,U,49208,999,24047,.29779E-3,.134E-5,0
ONEWEB-0343,2021-083Z,2026-07-14T22:04:04.202976,13.18687707,.0002224,87.9192,329.9413,106.5089,253.6287,0,U,49209,999,23369,-.8463E-4,-.2E-6,0
ONEWEB-0344,2021-083AA,2026-07-14T20:21:49.269024,13.13469295,.0002272,87.8975,314.7337,91.7854,268.3535,0,U,49210,999,23452,.37754E-3,.151E-5,0
ONEWEB-0345,2021-083AB,2026-07-14T20:09:38.694816,13.13470120,.00022345,87.8985,314.7203,94.9263,265.2122,0,U,49211,999,23453,.12290443E-3,.58E-6,0
ONEWEB-0346,2021-083AC,2026-07-14T20:09:57.004704,13.18687576,.00015523,87.9187,329.9565,76.6954,283.4351,0,U,49212,999,23362,-.12154948E-3,-.35E-6,0
ONEWEB-0348,2021-083AD,2026-07-15T03:26:39.617376,13.20772299,.0002123,87.9187,268.8708,82.7720,277.3655,0,U,49213,999,24050,.20247E-3,.95E-6,0
ONEWEB-0350,2021-083AE,2026-07-14T20:36:39.143232,13.13471358,.0001603,87.8982,314.7214,134.3983,225.7277,0,U,49214,999,23456,.87405E-3,.332E-5,0
ONEWEB-0351,2021-083AF,2026-07-15T05:05:51.182016,13.20759294,.0003432,87.9193,268.8564,110.8238,249.3263,0,U,49215,999,24047,.52647E-2,.2154E-4,0
ONEWEB-0352,2021-083AG,2026-07-14T19:55:00.921792,13.13469678,.0002272,87.8977,314.7315,107.0759,253.0619,0,U,49216,999,23465,-.63242157E-3,-.218E-5,0
ONEWEB-0354,2021-083AH,2026-07-15T03:55:44.798016,13.20771080,.000219,87.9186,268.8643,88.1248,272.0136,0,U,49217,999,24050,.2895E-3,.131E-5,0
ONEWEB-0355,2021-083AJ,2026-07-15T03:56:25.737792,13.13468519,.0002132,87.8977,314.6658,99.8279,260.3091,0,U,49218,999,23457,.36931E-3,.148E-5,0
ONEWEB-0357,2021-083AK,2026-07-15T03:50:53.128032,13.20770128,.0002238,87.9186,268.8589,101.8276,258.3108,0,U,49219,999,24050,.26905E-3,.122E-5,0
ONEWEB-0332,2021-090A,2026-07-15T05:31:10.470720,13.14503366,.0002003,87.8967,284.1217,106.5018,253.6331,0,U,49279,999,23126,.74585E-3,.289E-5,0
ONEWEB-0347,2021-090B,2026-07-15T03:36:20.685888,13.20769850,.000199,87.9186,268.8688,105.8609,254.2743,0,U,49280,999,23473,.23168E-3,.107E-5,0
ONEWEB-0349,2021-090C,2026-07-15T04:22:23.809728,13.20769456,.0002065,87.9187,268.8630,98.1906,261.9462,0,U,49281,999,23352,-.88133E-4,-.23E-6,0
ONEWEB-0353,2021-090D,2026-07-15T05:19:45.609888,13.14502710,.0001961,87.8967,284.1197,108.3013,251.8330,0,U,49282,999,23126,.40148E-3,.162E-5,0
ONEWEB-0356,2021-090E,2026-07-15T04:19:59.075040,13.20770108,.0001267,87.9185,268.8571,94.8229,265.3049,0,U,49283,999,23352,.91442E-4,.5E-6,0
ONEWEB-0358,2021-090F,2026-07-15T03:22:59.664576,13.20764839,.0002189,87.9184,268.8716,97.3977,262.7405,0,U,49284,999,23424,.74073E-2,.3025E-4,0
ONEWEB-0359,2021-090G,2026-07-15T03:09:40.332384,13.20770442,.0002109,87.9188,268.8662,91.6282,268.5092,0,U,49285,999,23422,.18054E-3,.86E-6,0
ONEWEB-0360,2021-090H,2026-07-15T04:44:14.629056,13.20771571,.0002175,87.9188,268.8593,98.8154,261.3226,0,U,49286,999,23354,-.8356E-5,.1E-6,0
ONEWEB-0361,2021-090J,2026-07-15T04:17:33.112608,13.20772826,.0002031,87.9187,268.8619,95.5261,264.6104,0,U,49287,999,23399,.16306E-3,.79E-6,0
ONEWEB-0362,2021-090K,2026-07-14T20:24:31.230144,13.19725805,.0002279,87.9186,299.4695,101.5371,258.6018,0,U,49288,999,23056,-.8231E-4,-.2E-6,0
ONEWEB-0363,2021-090L,2026-07-14T17:44:50.608032,13.20771944,.00017444,87.9189,268.9492,94.5815,265.5518,0,U,49289,999,23394,.17952386E-4,.2E-6,0
ONEWEB-0364,2021-090M,2026-07-15T03:46:02.394624,13.20770262,.0002111,87.9185,268.8739,99.3319,260.8053,0,U,49290,999,23513,.29247E-3,.132E-5,0
ONEWEB-0365,2021-090N,2026-07-14T18:48:59.281344,13.19725954,.00020731,87.9193,299.4732,102.7862,257.3502,0,U,49291,999,23006,-.5048149E-5,.11E-6,0
ONEWEB-0366,2021-090P,2026-07-14T18:17:32.574048,13.14502033,.00020002,87.8968,284.2127,99.2183,260.9173,0,U,49292,999,23118,.38111908E-3,.154E-5,0
ONEWEB-0367,2021-090Q,2026-07-14T17:43:37.443648,13.20773033,.00022121,87.9190,268.9509,102.6819,257.4562,0,U,49293,999,23346,-.72904783E-4,-.17E-6,0
ONEWEB-0368,2021-090R,2026-07-15T04:00:36.385056,13.20771431,.0001627,87.9173,268.8732,117.6898,242.4400,0,U,49294,999,23467,.16751E-3,.81E-6,0
