ONEWEB-0340             
1 49206U 21083W   26195.90431848 -.00000053  00000+0 -16817-3 0  9990
2 49206  87.9198 329.9445 0001871  94.3238 265.8108 13.18687332233625
ONEWEB-0341             
1 49207U 21083X   26195.91105786 -.00000091  00000+0 -26398-3 0  9998
2 49207  87.9191 329.9446 0002341  91.2413 268.8987 13.18687383233640
ONEWEB-0342             
1 49208U 21083Y   26196.15361071  .00000134  00000+0  29779-3 0  9999
2 49208  87.9189 268.8643 0002139 100.9935 259.1439 13.20772691240474
ONEWEB-0343             
1 49209U 21083Z   26195.91949309 -.00000020  00000+0 -84630-4 0  9993
2 49209  87.9192 329.9413 0002224 106.5089 253.6287 13.18687707233696
ONEWEB-0344             
1 49210U 21083AA  26195.84848691  .00000151  00000+0  37754-3 0  9996
2 49210  87.8975 314.7337 0002272  91.7854 268.3535 13.13469295234528
ONEWEB-0345             
1 49211U 21083AB  26195.84003119  .00000058  00000+0  12290-3 0  9999
2 49211  87.8985 314.7203 0002234  94.9263 265.2122 13.13470120234537
ONEWEB-0346             
1 49212U 21083AC  26195.84024311 -.00000035  00000+0 -12155-3 0  9994
2 49212  87.9187 329.9565 0001552  76.6954 283.4351 13.18687576233623
ONEWEB-0348             
1 49213U 21083AD  26196.14351409  .00000095  00000+0  20247-3 0  9995
2 49213  87.9187 268.8708 0002123  82.7720 277.3655 13.20772299240502
ONEWEB-0350             
1 49214U 21083AE  26195.85878638  .00000332  00000+0  87405-3 0  9994
2 49214  87.8982 314.7214 0001603 134.3983 225.7277 13.13471358234565
ONEWEB-0351             
1 49215U 21083AF  26196.21239794  .00002154  00000+0  52647-2 0  9993
2 49215  87.9193 268.8564 0003432 110.8238 249.3263 13.20759294240472
ONEWEB-0352             
1 49216U 21083AG  26195.82987178 -.00000218  00000+0 -63242-3 0  9991
2 49216  87.8977 314.7315 0002272 107.0759 253.0619 13.13469678234650
ONEWEB-0354             
1 49217U 21083AH  26196.16371294  .00000131  00000+0  28950-3 0  9995
2 49217  87.9186 268.8643 0002190  88.1248 272.0136 13.20771080240505
ONEWEB-0355             
1 49218U 21083AJ  26196.16418678  .00000148  00000+0  36931-3 0  9990
2 49218  87.8977 314.6658 0002132  99.8279 260.3091 13.13468519234570
ONEWEB-0357             
1 49219U 21083AK  26196.16033713  .00000122  00000+0  26905-3 0  9996
2 49219  87.9186 268.8589 0002238 101.8276 258.3108 13.20770128240501
ONEWEB-0332             
1 49279U 21090A   26196.22998230  .00000289  00000+0  74585-3 0  9992
2 49279  87.8967 284.1217 0002003 106.5018 253.6331 13.14503366231268
ONEWEB-0347             
1 49280U 21090B   26196.15023942  .00000107  00000+0  23168-3 0  9995
2 49280  87.9186 268.8688 0001990 105.8609 254.2743 13.20769850234735
ONEWEB-0349             
1 49281U 21090C   26196.18222002 -.00000023  00000+0 -88133-4 0  9990
2 49281  87.9187 268.8630 0002065  98.1906 261.9462 13.20769456233523
ONEWEB-0353             
1 49282U 21090D   26196.22205567  .00000162  00000+0  40148-3 0  9998
2 49282  87.8967 284.1197 0001961 108.3013 251.8330 13.14502710231267
ONEWEB-0356             
1 49283U 21090E   26196.18054485  .00000050  00000+0  91442-4 0  9995
2 49283  87.9185 268.8571 0001267  94.8229 265.3049 13.20770108233526
ONEWEB-0358             
1 49284U 21090F   26196.14096834  .00003025  00000+0  74073-2 0  9990
2 49284  87.9184 268.8716 0002189  97.3977 262.7405 13.20764839234240
ONEWEB-0359             
1 49285U 21090G   26196.13171681  .00000086  00000+0  18054-3 0  9996
2 49285  87.9188 268.8662 0002109  91.6282 268.5092 13.20770442234224
ONEWEB-0360             
1 49286U 21090H   26196.19739154  .00000010  00000+0 -83560-5 0  9992
2 49286  87.9188 268.8593 0002175  98.8154 261.3226 13.20771571233546
ONEWEB-0361             
1 49287U 21090J   26196.17885547  .00000079  00000+0  16306-3 0  9995
2 49287  87.9187 268.8619 0002031  95.5261 264.6104 13.20772826233993
ONEWEB-0362             
1 49288U 21090K   26195.85036146 -.00000020  00000+0 -82310-4 0  9990
2 49288  87.9186 299.4695 0002279 101.5371 258.6018 13.19725805230561
ONEWEB-0363             
1 49289U 21090L   26195.73947463  .00000020  00000+0  17952-4 0  9999
2 49289  87.9189 268.9492 0001744  94.5815 265.5518 13.20771944233945
ONEWEB-0364             
1 49290U 21090M   26196.15697216  .00000132  00000+0  29247-3 0  9999
2 49290  87.9185 268.8739 0002111  99.3319 260.8053 13.20770262235134
ONEWEB-0365             
1 49291U 21090N   26195.78401946  .00000011  00000+0 -50481-5 0  9994
2 49291  87.9193 299.4732 0002073 102.7862 257.3502 13.19725954230069
ONEWEB-0366             
1 49292U 21090P   26195.76218257  .00000154  00000+0  38112-3 0  9996
2 49292  87.8968 284.2127 0002000  99.2183 260.9173 13.14502033231189
ONEWEB-0367             
1 49293U 21090Q   26195.73862782 -.00000017  00000+0 -72905-4 0  9991
2 49293  87.9190 268.9509 0002212 102.6819 257.4562 13.20773033233464
ONEWEB-0368             
1 49294U 21090R   26196.16708779  .00000081  00000+0  16751-3 0  9990
2 49294  87.9173 268.8732 0001627 117.6898 242.4400 13.20771431234674
